AEHF-3 (USA 246)        
1 39256U 13050A   26158.24953817  .00000043  00000+0  00000+0 0  9990
2 39256   5.2702  67.2727 0087810 188.0771 325.8643  1.00270115 45557
ASTRA 2E                
1 39285U 13056A   26158.20864332  .00000165  00000+0  00000+0 0  9992
2 39285   0.0689 320.2620 0002655 124.5998 274.3755  1.00273234 46312
FM-6                    
1 39360U 13058A   26158.25127152  .00000001  00000+0  00000+0 0  9994
2 39360   0.0160  52.9052 0002473  98.4174  78.4470  1.00252250 45974
RADUGA-1M 3             
1 39375U 13062A   26157.99621483  .00000166  00000+0  00000+0 0  9993
2 39375   5.9312  72.4820 0001515 272.2358 304.3100  1.00271649 46004
SES-8                   
1 39460U 13071A   26158.11969247 -.00000255  00000+0  00000+0 0  9996
2 39460   0.0132 304.8170 0002918 137.4020 311.4101  1.00271837 44323
INMARSAT 5-F1           
1 39476U 13073A   26158.15322657  .00000042  00000+0  00000+0 0  9990
2 39476   0.0188 358.4684 0000762 347.9232  26.9669  1.00270930 45471
TKSAT-1 (TUPAC KATARI)  
1 39481U 13075A   26158.18570539 -.00000181  00000+0  00000+0 0  9990
2 39481   0.0285 186.9561 0002671 240.1489 168.1580  1.00272746 45504
EXPRESS-AM5             
1 39487U 13077A   26158.27047633 -.00000266  00000+0  00000+0 0  9996
2 39487   0.0176 281.7056 0000730 103.0345 108.3444  1.00270820 46264
GSAT-14                 
1 39498U 14001A   26158.07504156  .00000000  00000+0  00000+0 0  9997
2 39498   0.0104 341.0783 0000861 310.9304  64.4879  1.00269266 45279
THAICOM 6               
1 39500U 14002A   26158.14722024 -.00000107  00000+0  00000+0 0  9995
2 39500   0.0798 106.7121 0004599 355.8049 284.5439  1.00269983 45352
TDRS 12                 
1 39504U 14004A   26158.12359027 -.00000257  00000+0  00000+0 0  9994
2 39504   3.9669  18.9144 0002685 197.7248  42.4992  1.00270871 44174
ATHENA-FIDUS            
1 39509U 14006B   26158.21046333  .00000168  00000+0  00000+0 0  9994
2 39509   0.0394 100.2925 0001518 348.4754 280.4240  1.00270324 44987
TURKSAT 4A              
1 39522U 14007A   26158.21133000  .00000160  00000+0  00000+0 0  9990
2 39522   0.0569 292.0039 0001411  39.1639  42.5354  1.00269829 44868
EXPRESS-AT1             
1 39612U 14010A   26158.21514336  .00000048  00000+0  00000+0 0  9994
2 39612   0.2312  85.7942 0003871  33.3091 275.1950  1.00301846 44712
EXPRESS-AT2             
1 39613U 14010B   26158.12336594  .00000092  00000+0  00000+0 0  9992
2 39613   0.0180 306.3907 0000286  76.9156 332.6413  1.00273505 44396
AMAZONAS 4A             
1 39616U 14011A   26158.22405994 -.00000238  00000+0  00000+0 0  9991
2 39616   0.0665 205.7126 0003853 257.9317 158.6387  1.00273922 44619
ASTRA 5B                
1 39617U 14011B   26158.20768998  .00000151  00000+0  00000+0 0  9999
2 39617   0.0582 316.4512 0002183 107.4489 289.9929  1.00269659 44567
IRNSS-1B                
1 39635U 14017A   26139.86086405  .00000103  00000+0  00000+0 0  9999
2 39635  28.9733 240.8911 0024226 185.2284 176.5740  1.00280229 44519
LUCH-5V                 
1 39727U 14023A   26157.86969556 -.00000254  00000+0  00000+0 0  9993
2 39727   5.1075  69.8531 0002817  29.5559 203.6692  1.00268252 44252
KAZSAT-3                
1 39728U 14023B   26158.21462334  .00000075  00000+0  00000+0 0  9996
2 39728   0.0267  51.2196 0000206 341.8615 358.3005  1.00272194 42350
EUTELSAT 3B             
1 39773U 14030A   26158.13231352  .00000034  00000+0  00000+0 0  9994
2 39773   0.0607 352.4819 0004075  85.1361 228.6577  1.00272457 43963
ASIASAT 8 (AMOS-7)      
1 40107U 14046A   26158.00999764 -.00000319  00000+0  00000+0 0  9995
2 40107   0.0146 293.0258 0001590 140.1646 291.1589  1.00272264102047
ASIASAT 6               
1 40141U 14052A   26158.14836497 -.00000348  00000+0  00000+0 0  9990
2 40141   0.0180 328.2717 0000876 118.9358 341.6794  1.00272597 42976
OPTUS 10                
1 40146U 14054A   26158.23386269 -.00000133  00000+0  00000+0 0  9996
2 40146   0.0965 315.7139 0002057 115.5963  64.5229  1.00271004 42931
MEASAT-3B               
1 40147U 14054B   26158.14982027 -.00000228  00000+0  00000+0 0  9996
2 40147   0.0437  42.2127 0003197  23.0339 335.7349  1.00273020 42803
HIMAWARI-8              
1 40267U 14060A   26158.23082934 -.00000261  00000+0  00000+0 0  9991
2 40267   0.0201  52.7855 0000872  45.4489  21.1778  1.00271236 42663
IRNSS-1C                
1 40269U 14061A   26157.85165249 -.00000148  00000+0  00000+0 0  9996
2 40269   6.4923  89.1238 0022605   1.2769 194.4828  1.00270962 42580
INTELSAT 30 (IS-30)     
1 40271U 14062A   26158.18316286 -.00000136  00000+0  00000+0 0  9993
2 40271   0.0231  41.8371 0000995 355.8701 188.7404  1.00270215  6699
ARSAT 1                 
1 40272U 14062B   26158.18873874 -.00000246  00000+0  00000+0 0  9997
2 40272   0.0421  64.2551 0001869   8.8224 178.6701  1.00270319 42521
