OBJECT_NAME,OBJECT_ID,EPOCH,MEAN_MOTION,ECCENTRICITY,INCLINATION,RA_OF_ASC_NODE,ARG_OF_PERICENTER,MEAN_ANOMALY,EPHEMERIS_TYPE,CLASSIFICATION_TYPE,NORAD_CAT_ID,ELEMENT_SET_NO,REV_AT_EPOCH,BSTAR,MEAN_MOTION_DOT,MEAN_MOTION_DDOT
AEHF-3 (USA 246),2013-050A,2026-06-07T05:59:20.097888,1.00270115,.00878106,5.2702,67.2727,188.0771,325.8643,0,U,39256,999,4555,0,.43E-6,0
ASTRA 2E,2013-056A,2026-06-07T05:00:26.782848,1.00273234,.00026553,0.0689,320.2620,124.5998,274.3755,0,U,39285,999,4631,0,.165E-5,0
FM-6,2013-058A,2026-06-07T06:01:49.859328,1.00252250,.0002473,0.0160,52.9052,98.4174,78.4470,0,U,39360,999,4597,0,.1E-7,0
RADUGA-1M 3,2013-062A,2026-06-06T23:54:32.961312,1.00271649,.00015145,5.9312,72.4820,272.2358,304.3100,0,U,39375,999,4600,0,.166E-5,0
SES-8,2013-071A,2026-06-07T02:52:21.429408,1.00271837,.00029187,0.0132,304.8170,137.4020,311.4101,0,U,39460,999,4432,0,-.255E-5,0
INMARSAT 5-F1,2013-073A,2026-06-07T03:40:38.775648,1.00270930,.00007628,0.0188,358.4684,347.9232,26.9669,0,U,39476,999,4547,0,.42E-6,0
TKSAT-1 (TUPAC KATARI),2013-075A,2026-06-07T04:27:24.945696,1.00272746,.00026711,0.0285,186.9561,240.1489,168.1580,0,U,39481,999,4550,0,-.181E-5,0
EXPRESS-AM5,2013-077A,2026-06-07T06:29:29.154912,1.00270820,.000073,0.0176,281.7056,103.0345,108.3444,0,U,39487,999,4626,0,-.266E-5,0
GSAT-14,2014-001A,2026-06-07T01:48:03.591648,1.00269266,.00008614,0.0104,341.0783,310.9304,64.4879,0,U,39498,999,4527,0,0,0
THAICOM 6,2014-002A,2026-06-07T03:31:59.829600,1.00269983,.00045992,0.0798,106.7121,355.8049,284.5439,0,U,39500,999,4535,0,-.107E-5,0
TDRS 12,2014-004A,2026-06-07T02:57:58.199328,1.00270871,.00026856,3.9669,18.9144,197.7248,42.4992,0,U,39504,999,4417,0,-.257E-5,0
ATHENA-FIDUS,2014-006B,2026-06-07T05:03:04.031712,1.00270324,.00015186,0.0394,100.2925,348.4754,280.4240,0,U,39509,999,4498,0,.168E-5,0
TURKSAT 4A,2014-007A,2026-06-07T05:04:18.912000,1.00269829,.00014114,0.0569,292.0039,39.1639,42.5354,0,U,39522,999,4486,0,.16E-5,0
EXPRESS-AT1,2014-010A,2026-06-07T05:09:48.386304,1.00301846,.00038713,0.2312,85.7942,33.3091,275.1950,0,U,39612,999,4471,0,.48E-6,0
EXPRESS-AT2,2014-010B,2026-06-07T02:57:38.817216,1.00273505,.0000286,0.0180,306.3907,76.9156,332.6413,0,U,39613,999,4439,0,.92E-6,0
AMAZONAS 4A,2014-011A,2026-06-07T05:22:38.778816,1.00273922,.00038534,0.0665,205.7126,257.9317,158.6387,0,U,39616,999,4461,0,-.238E-5,0
ASTRA 5B,2014-011B,2026-06-07T04:59:04.414272,1.00269659,.00021835,0.0582,316.4512,107.4489,289.9929,0,U,39617,999,4456,0,.151E-5,0
IRNSS-1B,2014-017A,2026-05-19T20:39:38.653920,1.00280229,.00242269,28.9733,240.8911,185.2284,176.5740,0,U,39635,999,4451,0,.103E-5,0
LUCH-5V,2014-023A,2026-06-06T20:52:21.696384,1.00268252,.00028168,5.1075,69.8531,29.5559,203.6692,0,U,39727,999,4425,0,-.254E-5,0
KAZSAT-3,2014-023B,2026-06-07T05:09:03.456576,1.00272194,.00002067,0.0267,51.2196,341.8615,358.3005,0,U,39728,999,4235,0,.75E-6,0
EUTELSAT 3B,2014-030A,2026-06-07T03:10:31.888128,1.00272457,.00040757,0.0607,352.4819,85.1361,228.6577,0,U,39773,999,4396,0,.34E-6,0
ASIASAT 8 (AMOS-7),2014-046A,2026-06-07T00:14:23.796096,1.00272264,.00015896,0.0146,293.0258,140.1646,291.1589,0,U,40107,999,10204,0,-.319E-5,0
ASIASAT 6,2014-052A,2026-06-07T03:33:38.733408,1.00272597,.0000876,0.0180,328.2717,118.9358,341.6794,0,U,40141,999,4297,0,-.348E-5,0
OPTUS 10,2014-054A,2026-06-07T05:36:45.736416,1.00271004,.00020574,0.0965,315.7139,115.5963,64.5229,0,U,40146,999,4293,0,-.133E-5,0
MEASAT-3B,2014-054B,2026-06-07T03:35:44.471328,1.00273020,.00031975,0.0437,42.2127,23.0339,335.7349,0,U,40147,999,4280,0,-.228E-5,0
HIMAWARI-8,2014-060A,2026-06-07T05:32:23.654976,1.00271236,.00008725,0.0201,52.7855,45.4489,21.1778,0,U,40267,999,4266,0,-.261E-5,0
IRNSS-1C,2014-061A,2026-06-06T20:26:22.775136,1.00270962,.00226053,6.4923,89.1238,1.2769,194.4828,0,U,40269,999,4258,0,-.148E-5,0
INTELSAT 30 (IS-30),2014-062A,2026-06-07T04:23:45.271968,1.00270215,.0000995,0.0231,41.8371,355.8701,188.7404,0,U,40271,999,669,0,-.136E-5,0
ARSAT 1,2014-062B,2026-06-07T04:31:47.027136,1.00270319,.00018697,0.0421,64.2551,8.8224,178.6701,0,U,40272,999,4252,0,-.246E-5,0
